TDRS 3                  
1 19548U 88091B   22278.55396583 -.00000309  00000+0  00000+0 0  9999
2 19548  13.6363 350.4547 0035209 326.0484 208.3340  1.00271228111843
HST                     
1 20580U 90037B   22278.88319064  .00004286  00000+0  23956-3 0  9991
2 20580  28.4693 156.8734 0002584 143.2526 307.1273 15.10979644582931
TDRS 5                  
1 21639U 91054B   22278.69179243  .00000074  00000+0  00000+0 0  9991
2 21639  14.2303   3.7790 0021851   1.1607  90.7750  1.00273882114177
TDRS 6                  
1 22314U 93003B   22278.43749227 -.00000304  00000+0  00000+0 0  9992
2 22314  14.1389   7.0326 0010207 136.5691 342.1974  1.00273738108863
TDRS 7                  
1 23613U 95035B   22278.84919991 -.00000213  00000+0  00000+0 0  9993
2 23613  13.9366 357.7270 0025082  58.9060 348.4331  1.00274777 99718
ISS (ZARYA)             
1 25544U 98067A   22279.22836639  .00013819  00000+0  25172-3 0  9992
2 25544  51.6417 146.4500 0003311 259.7001 241.4837 15.49766217362400
LANDSAT 7               
1 25682U 99020A   22279.06106894  .00000342  00000+0  80699-4 0  9993
2 25682  97.9680 322.8987 0001667  91.7690 268.3714 14.59813492248703
TERRA                   
1 25994U 99068A   22279.16556569  .00000626  00000+0  14867-3 0  9998
2 25994  98.1273 348.4932 0001021  96.2503 315.9918 14.57169745212744
TDRS 8                  
1 26388U 00034A   22278.84870806 -.00000245  00000+0  00000+0 0  9996
2 26388  10.5401  41.7735 0017385 342.2152  25.4139  1.00270951 81648
TIMED                   
1 26998U 01055B   22278.85222409  .00001663  00000+0  18142-3 0  9992
2 26998  74.0723  59.6793 0002162 272.4850  87.6084 14.88830007129438
TDRS 9                  
1 27389U 02011A   22278.36727387 -.00000297  00000+0  00000+0 0  9994
2 27389   9.2508  59.7956 0022278 294.2062  89.8080  1.00266171 76901
AQUA                    
1 27424U 02022A   22279.11404366  .00001329  00000+0  30318-3 0  9994
2 27424  98.2552 219.9970 0000747  81.9271  44.6439 14.57416974 86344
TDRS 10                 
1 27566U 02055A   22278.69971517  .00000078  00000+0  00000+0 0  9997
2 27566   8.4022  49.3249 0004459 338.7304  67.1641  1.00276637 72696
SORCE                   
1 27651U 03004A   22278.31948799  .00002966  00000+0  31361-3 0  9998
2 27651  39.9956 323.9264 0022602 168.3277 191.8040 14.90177840 69468
AURA                    
1 28376U 04026A   22279.12285254  .00001129  00000+0  26083-3 0  9993
2 28376  98.2173 220.9029 0001112  85.0560 275.0766 14.57088508969385
SWIFT                   
1 28485U 04047A   22278.67876497  .00007512  00000+0  45674-3 0  9990
2 28485  20.5563 256.2693 0010293 255.6945 104.2346 15.07049156980199
THEMIS A                
1 30580U 07004A   22278.20105005 -.00000535  00000+0 -32063-2 0  9991
2 30580  13.3402 334.0136 8371655 188.2830 129.7659  0.87836361 29402
THEMIS D                
1 30797U 07004D   22279.05328948 -.00000593  00000+0  00000+0 0  9994
2 30797   9.1441 322.8030 8327668 202.6822  51.0342  0.87838424 53622
THEMIS E                
1 30798U 07004E   22278.86286546 -.00000629  00000+0  00000+0 0  9990
2 30798  10.1458 337.1013 8318825 190.3836 341.0664  0.87841867 54047
AIM                     
1 31304U 07015A   22278.77858511  .00017220  00000+0  81782-3 0  9997
2 31304  97.8519 202.1922 0005095  22.1975 337.9478 15.19297945847939
FGRST (GLAST)           
1 33053U 08029A   22278.29613112  .00003395  00000+0  17302-3 0  9994
2 33053  25.5820 138.0187 0012098  15.2890 344.8010 15.12475311790344
WISE                    
1 36119U 09071A   22278.35928722  .00012018  00000+0  35749-3 0  9998
2 36119  97.2317 310.6251 0000345 257.3727 102.7478 15.34875069712359
TDRS 11                 
1 39070U 13004A   22278.81913882  .00000063  00000+0  00000+0 0  9995
2 39070   2.8424 349.2843 0004349  76.8829  69.0678  1.00279698 33154
TDRS 12                 
1 39504U 14004A   22278.70220316 -.00000287  00000+0  00000+0 0  9998
2 39504   3.7741 349.2681 0002975 161.8145  75.1753  1.00274665 30739
GPM-CORE                
1 39574U 14009C   22279.12390985  .00030972  00000+0  44901-3 0  9992
2 39574  65.0011 171.6297 0008037 254.4300 105.5959 15.55692920488831
MMS 1                   
1 40482U 15011A   22276.60297285 -.00001438  00000+0  00000+0 0  9999
2 40482  30.7078  96.9069 8790099  61.7761 359.2714  0.28477461 13615
MMS 2                   
1 40483U 15011B   22276.80547848 -.00001428  00000+0  00000+0 0  9994
2 40483  30.7161  96.9078 8792292  61.7509  20.0228  0.28468557 13671
MMS 3                   
1 40484U 15011C   22276.81520071 -.00001428  00000+0  00000+0 0  9995
2 40484  30.7112  96.8817 8791253  61.7886  21.0599  0.28468284 13356
MMS 4                   
1 40485U 15011D   22276.84020071 -.00001424  00000+0  00000+0 0  9990
2 40485  30.7031  96.9114 8790613  61.7579  23.6395  0.28510939 13566
TDRS 13                 
1 42915U 17047A   22278.85327105 -.00000119  00000+0  00000+0 0  9992
2 42915   4.3280 334.5500 0016233 126.1528 209.5564  1.00271704 18800
JPSS-1                  
1 43013U 17073A   22279.09545321  .00000130  00000+0  82212-4 0  9992
2 43013  98.7228 215.9443 0001644  90.2830 269.8535 14.19547708252928
